CAS-2T & KS-1Q          
1 41847U 16066G   20360.89049207  .00000139  00000-0  31139-4 0  9997
2 41847  98.6290  53.0694 0365818  18.4595 342.9471 14.38130020216933
NAYIF-1 (EO-88)         
1 42017U 17008BX  20360.85703402  .00003283  00000-0  12559-3 0  9991
2 42017  97.3400  65.4640 0006364  20.1268 340.0221 15.27269951214750
ZHUHAI-1 02 (CAS-4B)    
1 42759U 17034B   20361.06313301  .00000643  00000-0  52230-4 0  9990
2 42759  43.0191  54.1753 0008963 163.4207 273.2339 15.10015839194939
ZHUHAI-1 01 (CAS-4A)    
1 42761U 17034D   20361.13280927  .00000676  00000-0  54125-4 0  9999
2 42761  43.0191  52.9647 0009379 165.1674 288.5691 15.10096379194948
MAX VALIER SAT          
1 42778U 17036P   20360.88890382  .00001805  00000-0  79305-4 0  9994
2 42778  97.2811  48.9945 0013596  71.5905 288.6809 15.23083526194862
RADFXSAT (FOX-1B)       
1 43017U 17073E   20360.71021610  .00000714  00000-0  60055-4 0  9994
2 43017  97.7171 265.5016 0256781 146.7555 215.0089 14.79226939167434
FOX-1D (AO-92)          
1 43137U 18004AC  20360.83900591  .00002233  00000-0  93253-4 0  9993
2 43137  97.4279  70.5409 0010629 101.4662 258.7769 15.24650433164201
DIWATA-2B               
1 43678U 18084H   20361.25846239  .00000333  00000-0  38865-4 0  9993
2 43678  97.9035 119.9086 0008500 263.3525  96.6705 14.91692775117616
ES'HAIL 2               
1 43700U 18090A   20360.92966161  .00000164  00000-0  00000-0 0  9994
2 43700   0.0160  64.1747 0001771 235.9795 155.2094  1.00274013  7638
FOX-1CLIFF (AO-95)      
1 43770U 18099N   20361.12560646  .00000510  00000-0  51589-4 0  9998
2 43770  97.6870  68.9691 0013118 277.3696  82.6034 14.95147038112552
ITASAT 1                
1 43786U 18099AE  20360.74568576  .00000915  00000-0  87744-4 0  9993
2 43786  97.6892  69.1531 0013606 271.3902  88.5761 14.95465983112526
JY1SAT (JO-97)          
1 43803U 18099AX  20360.73599666  .00000865  00000-0  82814-4 0  9993
2 43803  97.6849  68.9211 0013646 271.3110  88.6548 14.95673653112524
PSAT2 (NO-104)          
1 44354U 19036R   20360.91665152  .00016214  00000-0  22590-3 0  9990
2 44354  28.5285 199.5256 0344944 201.7922 156.7669 15.08436699 82708
BRICSAT2 (NO-103)       
1 44355U 19036S   20360.86395643  .00028765  00000-0  36084-3 0  9997
2 44355  28.5281 177.4831 0305472 237.6895 119.3769 15.18620844 82927
JAISAT-1                
1 44419U 19038F   20360.89154316  .00001683  00000-0  97970-4 0  9995
2 44419  97.5654 320.5669 0020925 186.4208 173.6758 15.13241746 81547
DUCHIFAT-3              
1 44854U 19089C   20361.18289775  .00000713  00000-0  63733-4 0  9998
2 44854  36.9665  45.1341 0007494 180.8438 179.2308 14.99267434 57085
RS-44 & BREEZE-KM R/B   
1 44909U 19096E   20360.90613948  .00000021  00000-0  33012-4 0  9998
2 44909  82.5210 228.0978 0218021 138.6865 223.0962 12.79707870 46678
ORBITAL FACTORY 2 (OF-2)
1 45113U 19071C   20360.84973326  .00005197  00000-0  16427-3 0  9990
2 45113  51.6407 158.3912 0012537  29.7197 330.4495 15.34449137 50500
HUSKYSAT-1              
1 45119U 19071J   20360.87009015  .00004074  00000-0  13075-3 0  9993
2 45119  51.6400 157.7765 0011877  26.6028 333.5562 15.34578917 50501
BY70-2                  
1 45857U 20042B   20361.12362101  .00001377  00000-0  20453-3 0  9990
2 45857  97.9997  72.6146 0011908  58.7662 301.4738 14.76573953 25968
SALSAT                  
1 46495U 20068K   20360.94360451  .00000473  00000-0  39383-4 0  9991
2 46495  97.6797 293.6488 0015280 304.2835  55.6941 15.03309829 13268
BY70-3                  
1 46839U 20079N   20361.21979727  .00004145  00000-0  13427-3 0  9998
2 46839  97.2602  72.4848 0009086 105.1310 339.5025 15.32526413  7663
OSCAR 7 (AO-7)          
1 07530U 74089B   20361.15093259 -.00000034  00000-0  69477-4 0  9994
2 07530 101.8301 330.0129 0012329 356.5028  14.5751 12.53646667110253
